OBJECT_NAME,OBJECT_ID,EPOCH,MEAN_MOTION,ECCENTRICITY,INCLINATION,RA_OF_ASC_NODE,ARG_OF_PERICENTER,MEAN_ANOMALY,EPHEMERIS_TYPE,CLASSIFICATION_TYPE,NORAD_CAT_ID,ELEMENT_SET_NO,REV_AT_EPOCH,BSTAR,MEAN_MOTION_DOT,MEAN_MOTION_DDOT
2019-093L,2019-093L,2026-06-14T12:13:12.730368,14.94528743,.0013391,97.7568,243.8011,63.9815,296.2783,0,U,44889,999,35140,.41746E-3,.4461E-4,0
ELEKTRO-L 3,2019-095A,2026-06-14T11:45:28.812384,1.00271501,.0000989,0.2489,81.5459,353.7236,79.8449,0,U,44903,999,2368,0,-.89E-6,0
GONETS-M 14,2019-096A,2026-06-14T13:15:56.857824,12.42869618,.0013394,82.5237,86.2737,153.5660,206.6105,0,U,44905,999,29335,-.12255E-3,-.7E-7,0
GONETS-M 15,2019-096B,2026-06-14T12:02:22.185024,12.42871424,.001478,82.5256,86.7665,177.3162,182.8000,0,U,44906,999,29331,.24953E-3,.45E-6,0
GONETS-M 16,2019-096C,2026-06-14T12:40:11.130240,12.42891595,.0009732,82.5203,85.7038,221.0097,139.0252,0,U,44907,999,29330,.13194E-3,.28E-6,0
RS-44 & BREEZE-KM R/B,2019-096E,2026-06-14T12:04:52.597056,12.79748825,.0218068,82.5218,341.4886,150.4238,210.9408,0,U,44909,999,30200,.20476E-4,.18E-6,0
JILIN-1 KUANFU 01,2020-003A,2026-06-14T12:05:15.086112,15.10710137,.000851,97.5032,239.5110,318.4270,41.6312,0,U,45016,999,35492,.16094E-3,.2604E-4,0
XINGYUN-2 01,2020-028A,2026-06-14T11:52:04.183968,15.11799930,.0008069,97.4859,157.9480,202.2128,157.8754,0,U,45602,999,33443,.15623E-3,.2605E-4,0
XINGYUN-2 02,2020-028B,2026-06-14T11:20:35.543904,15.11532716,.000914,97.5066,171.5117,284.7419,75.2798,0,U,45603,999,33442,.18976E-3,.3154E-4,0
HAIYANG-1D,2020-036A,2026-06-14T12:45:01.626912,14.34172203,.0003262,98.4554,107.2686,134.1159,226.0295,0,U,45721,999,31459,.30675E-4,.43E-6,0
M2 PATHFINDER,2020-037E,2026-06-14T12:28:32.357280,15.04667680,.0012313,97.8150,356.7219,154.2345,205.9496,0,U,45727,999,32509,.14859E-3,.2028E-4,0
GAOFEN DUOMO (GFDM),2020-042A,2026-06-14T11:56:12.594336,14.76877453,.0012487,97.7754,225.4813,82.2701,277.9927,0,U,45856,999,32061,.11522E-3,.761E-5,0
ZIYUAN 3-03 (ZY 3-03),2020-051A,2026-06-14T11:42:08.094816,15.21512507,.0003441,97.2844,233.3008,334.5798,25.5269,0,U,45939,999,32693,.15468E-3,.3414E-4,0
NEMO-HD,2020-061F,2026-06-14T11:21:55.446624,15.44544590,.0002415,97.1925,227.4536,84.4603,275.6922,0,U,46277,999,32156,.21926E-3,.10094E-3,0
3CAT-5A,2020-061W,2026-06-14T03:13:19.594848,15.46013843,.00031472,97.2413,228.0298,120.7488,239.4072,0,U,46292,999,32055,.35704708E-3,.17355E-3,0
3CAT-5B,2020-061X,2026-06-14T10:39:02.142720,15.47396537,.0003376,97.2403,229.3162,120.4817,239.6767,0,U,46293,999,32063,.34724E-3,.17701E-3,0
NAPA-1,2020-061BA,2026-06-14T13:06:03.165408,15.67668859,.0001302,97.2471,239.6389,168.4364,191.6927,0,U,46320,999,32132,.64377E-3,.70581E-3,0
JILIN-1 GAOFEN 3E,2020-065D,2026-06-14T11:16:37.747776,15.63336262,.0012712,97.2249,218.0165,165.4029,194.7600,0,U,46457,999,31933,.66248E-3,.61316E-3,0
JILIN-1 GAOFEN 3F,2020-065E,2026-06-14T11:45:48.805344,15.60654737,.0014268,97.2206,215.3857,154.5065,205.6900,0,U,46458,999,31928,.61992E-3,.51711E-3,0
JILIN-1 GAOFEN 3G,2020-065F,2026-06-14T11:20:30.696000,15.70777888,.0008839,97.2277,222.1264,73.8355,286.3880,0,U,46459,999,31951,.72124E-3,.90239E-3,0
JILIN-1 GAOFEN 3H,2020-065G,2026-06-14T12:03:04.125312,15.67430271,.0003901,97.2220,218.5013,6.3822,353.7488,0,U,46460,999,31946,.67551E-3,.73403E-3,0
HAIYANG-2C,2020-066A,2026-06-14T13:30:58.326048,13.83374926,.0009024,65.9971,221.8172,238.1087,121.9104,0,U,46469,999,28913,.39653E-4,-.38E-6,0
HJ-2A,2020-067A,2026-06-14T12:32:01.470336,14.76514910,.0002363,97.8834,243.9576,281.9516,78.1429,0,U,46478,999,30786,.16449E-3,.1096E-4,0
HJ-2B,2020-067B,2026-06-14T11:47:39.948576,14.76554675,.0001221,97.8897,244.9468,96.0628,264.0721,0,U,46479,999,30786,.71834E-4,.451E-5,0
GONETS-M 17,2020-068A,2026-06-14T11:20:23.796960,12.42873582,.0023192,82.4987,349.1923,43.1535,317.1357,0,U,46486,999,25882,.83832E-3,.126E-5,0
GONETS-M 18,2020-068B,2026-06-14T12:23:58.786368,12.42873480,.0020443,82.4940,348.2837,39.8063,320.4512,0,U,46487,999,25881,.25677E-3,.46E-6,0
GONETS-M 19,2020-068C,2026-06-14T11:48:38.077632,12.42892634,.0014344,82.4965,348.7489,55.0771,305.1654,0,U,46488,999,25891,.95382E-3,.142E-5,0
DEKART,2020-068H,2026-06-14T11:21:09.441216,15.37295812,.0007093,97.8734,174.5486,298.7000,61.3530,0,U,46493,999,31535,.30997E-3,.11248E-3,0
NORBI,2020-068J,2026-06-14T12:10:42.378816,15.48356006,.0004637,97.8618,181.2361,257.5223,102.5508,0,U,46494,999,31579,.40714E-3,.21477E-3,0
SALSAT,2020-068K,2026-06-14T11:07:43.012992,15.29766434,.0008244,97.8844,168.3625,319.7381,40.3247,0,U,46495,999,31494,.26787E-3,.7647E-4,0
