{"_default": { "2": {"norad_id": "46277", "name": "NEMO-HD", "tle1": "1 46277U 20061F   26165.47355841  .00010094  00000-0  21926-3 0  9999", "tle2": "2 46277  97.1925 227.4536 0002415  84.4603 275.6922 15.44544590321568", "object_type": "PAYLOAD", "criticality_score": 9.0, "last_updated": "2026-06-14T17:46:05.057534+00:00", "maneuver_count": 0, "owner": "N/A"}, "130": {"norad_id": "45727", "name": "M2 PATHFINDER", "tle1": "1 45727U 20037E   26165.51981895  .00002028  00000-0  14859-3 0  9995", "tle2": "2 45727  97.8150 356.7219 0012313 154.2345 205.9496 15.04667680325091", "object_type": "PAYLOAD", "criticality_score": 9.0, "last_updated": "2026-06-14T17:46:05.057534+00:00", "maneuver_count": 0, "owner": "N/A"}, "147": {"norad_id": "44909", "name": "BREEZE-KM R/B", "tle1": "1 44909U 19096E   26165.50338654  .00000018  00000-0  20476-4 0  9997", "tle2": "2 44909  82.5218 341.4886 0218068 150.4238 210.9408 12.79748825302008", "object_type": "ROCKET_BODY", "criticality_score": 9.0, "last_updated": "2026-06-14T17:46:05.057534+00:00", "maneuver_count": 0, "owner": "N/A"}, "161": {"norad_id": "46495", "name": "SALSAT", "tle1": "1 46495U 20068K   26165.46369228  .00007647  00000-0  26787-3 0  9991", "tle2": "2 46495  97.8844 168.3625 0008244 319.7381  40.3247 15.29766434314949", "object_type": "PAYLOAD", "criticality_score": 9.0, "last_updated": "2026-06-14T17:46:05.057534+00:00", "maneuver_count": 0, "owner": "N/A"}, "166": {"norad_id": "46493", "name": "DEKART", "tle1": "1 46493U 20068H   26165.47302594  .00011248  00000-0  30997-3 0  9993", "tle2": "2 46493  97.8734 174.5486 0007093 298.7000  61.3530 15.37295812315354", "object_type": "PAYLOAD", "criticality_score": 9.0, "last_updated": "2026-06-14T17:46:05.057534+00:00", "maneuver_count": 0, "owner": "N/A"}, "167": {"norad_id": "46494", "name": "NORBI", "tle1": "1 46494U 20068J   26165.50743494  .00021477  00000-0  40714-3 0  9999", "tle2": "2 46494  97.8618 181.2361 0004637 257.5223 102.5508 15.48356006315790", "object_type": "PAYLOAD", "criticality_score": 9.0, "last_updated": "2026-06-14T17:46:05.057534+00:00", "maneuver_count": 0, "owner": "N/A"}, "220": {"norad_id": "44903", "name": "ELEKTRO-L 3", "tle1": "1 44903U 19095A   26165.48991681 -.00000089  00000-0  00000+0 0  9997", "tle2": "2 44903   0.2489  81.5459 0000989 353.7236  79.8449  1.00271501 23689", "object_type": "PAYLOAD", "criticality_score": 9.0, "last_updated": "2026-06-14T17:46:05.057534+00:00", "maneuver_count": 0, "owner": "N/A"}, "234": {"norad_id": "46292", "name": "3CAT-5/A (TYVAK-0161)", "tle1": "1 46292U 20061W   26165.13425457  .00017355  00000-0  35705-3 0  9997", "tle2": "2 46292  97.2413 228.0298 0003147 120.7488 239.4072 15.46013843320554", "object_type": "PAYLOAD", "criticality_score": 9.0, "last_updated": "2026-06-14T17:46:05.057534+00:00", "maneuver_count": 0, "owner": "N/A"}, "235": {"norad_id": "46293", "name": "3CAT-5/B (TYVAK-0162)", "tle1": "1 46293U 20061X   26165.44377480  .00017701  00000-0  34724-3 0  9999", "tle2": "2 46293  97.2403 229.3162 0003376 120.4817 239.6767 15.47396537320632", "object_type": "PAYLOAD", "criticality_score": 9.0, "last_updated": "2026-06-14T17:46:05.057534+00:00", "maneuver_count": 0, "owner": "N/A"}, "246": {"norad_id": "46320", "name": "NAPA-1", "tle1": "1 46320U 20061BA  26165.54586997  .00070581  00000-0  64377-3 0  9998", "tle2": "2 46320  97.2471 239.6389 0001302 168.4364 191.6927 15.67668859321322", "object_type": "PAYLOAD", "criticality_score": 9.0, "last_updated": "2026-06-14T17:46:05.057534+00:00", "maneuver_count": 0, "owner": "N/A"}, "281": {"norad_id": "44889", "name": "OBJECT L", "tle1": "1 44889U 19093L   26165.50917512  .00004461  00000-0  41746-3 0  9995", "tle2": "2 44889  97.7568 243.8011 0013391  63.9815 296.2783 14.94528743351402", "object_type": "PAYLOAD", "criticality_score": 9.0, "last_updated": "2026-06-14T17:46:05.057534+00:00", "maneuver_count": 0, "owner": "N/A"}, "359": {"norad_id": "46460", "name": "JILIN-01 GAOFEN 3H", "tle1": "1 46460U 20065G   26165.50213108  .00073403  00000-0  67551-3 0  9997", "tle2": "2 46460  97.2220 218.5013 0003901   6.3822 353.7488 15.67430271319465", "object_type": "PAYLOAD", "criticality_score": 9.0, "last_updated": "2026-06-14T17:46:05.057534+00:00", "maneuver_count": 0, "owner": "N/A"}, "360": {"norad_id": "46459", "name": "JILIN-01 GAOFEN 3G", "tle1": "1 46459U 20065F   26165.47257750  .00090239  00000-0  72124-3 0  9990", "tle2": "2 46459  97.2277 222.1264 0008839  73.8355 286.3880 15.70777888319514", "object_type": "PAYLOAD", "criticality_score": 9.0, "last_updated": "2026-06-14T17:46:05.057534+00:00", "maneuver_count": 0, "owner": "N/A"}, "361": {"norad_id": "46458", "name": "JILIN-01 GAOFEN 3F", "tle1": "1 46458U 20065E   26165.49014821  .00051711  00000-0  61992-3 0  9994", "tle2": "2 46458  97.2206 215.3857 0014268 154.5065 205.6900 15.60654737319282", "object_type": "PAYLOAD", "criticality_score": 9.0, "last_updated": "2026-06-14T17:46:05.057534+00:00", "maneuver_count": 0, "owner": "N/A"}, "362": {"norad_id": "46457", "name": "JILIN-01 GAOFEN 3E", "tle1": "1 46457U 20065D   26165.46988134  .00061316  00000-0  66248-3 0  9998", "tle2": "2 46457  97.2249 218.0165 0012712 165.4029 194.7600 15.63336262319337", "object_type": "PAYLOAD", "criticality_score": 9.0, "last_updated": "2026-06-14T17:46:05.057534+00:00", "maneuver_count": 0, "owner": "N/A"}, "425": {"norad_id": "45602", "name": "XINGYUN-2 01", "tle1": "1 45602U 20028A   26165.49449287  .00002605  00000-0  15623-3 0  9999", "tle2": "2 45602  97.4859 157.9480 0008069 202.2128 157.8754 15.11799930334434", "object_type": "PAYLOAD", "criticality_score": 9.0, "last_updated": "2026-06-14T17:46:05.057534+00:00", "maneuver_count": 0, "owner": "N/A"}, "431": {"norad_id": "45721", "name": "HAIYANG 1D", "tle1": "1 45721U 20036A   26165.53126883  .00000043  00000-0  30675-4 0  9998", "tle2": "2 45721  98.4554 107.2686 0003262 134.1159 226.0295 14.34172203314598", "object_type": "PAYLOAD", "criticality_score": 9.0, "last_updated": "2026-06-14T17:46:05.057534+00:00", "maneuver_count": 0, "owner": "N/A"}, "443": {"norad_id": "46469", "name": "HAIYANG 2C", "tle1": "1 46469U 20066A   26165.56317507 -.00000038  00000-0  39653-4 0  9999", "tle2": "2 46469  65.9971 221.8172 0009024 238.1087 121.9104 13.83374926289132", "object_type": "PAYLOAD", "criticality_score": 9.0, "last_updated": "2026-06-14T17:46:05.057534+00:00", "maneuver_count": 0, "owner": "N/A"}, "479": {"norad_id": "46479", "name": "HJ-2B", "tle1": "1 46479U 20067B   26165.49143459  .00000451  00000-0  71834-4 0  9991", "tle2": "2 46479  97.8897 244.9468 0001221  96.0628 264.0721 14.76554675307860", "object_type": "PAYLOAD", "criticality_score": 9.0, "last_updated": "2026-06-14T17:46:05.057534+00:00", "maneuver_count": 0, "owner": "N/A"}, "530": {"norad_id": "45939", "name": "ZINYUAN-3", "tle1": "1 45939U 20051A   26165.48759369  .00003414  00000-0  15468-3 0  9998", "tle2": "2 45939  97.2844 233.3008 0003441 334.5798  25.5269 15.21512507326937", "object_type": "PAYLOAD", "criticality_score": 9.0, "last_updated": "2026-06-14T17:46:05.057534+00:00", "maneuver_count": 0, "owner": "N/A"}, "566": {"norad_id": "45016", "name": "JILIN-01 KUANFU 01", "tle1": "1 45016U 20003A   26165.50364683  .00002604  00000-0  16094-3 0  9991", "tle2": "2 45016  97.5032 239.5110 0008510 318.4270  41.6312 15.10710137354920", "object_type": "PAYLOAD", "criticality_score": 9.0, "last_updated": "2026-06-14T17:46:05.057534+00:00", "maneuver_count": 0, "owner": "N/A"}, "567": {"norad_id": "45856", "name": "GAOFEN DUOMO (GFDM)", "tle1": "1 45856U 20042A   26165.49736799  .00000761  00000-0  11522-3 0  9998", "tle2": "2 45856  97.7754 225.4813 0012487  82.2701 277.9927 14.76877453320613", "object_type": "PAYLOAD", "criticality_score": 9.0, "last_updated": "2026-06-14T17:46:05.057534+00:00", "maneuver_count": 0, "owner": "N/A"}, "611": {"norad_id": "44905", "name": "GONETS M 14 (M24)", "tle1": "1 44905U 19096A   26165.55274141 -.00000007  00000-0 -12255-3 0  9993", "tle2": "2 44905  82.5237  86.2737 0013394 153.5660 206.6105 12.42869618293359", "object_type": "PAYLOAD", "criticality_score": 9.0, "last_updated": "2026-06-14T17:46:05.057534+00:00", "maneuver_count": 0, "owner": "N/A"}, "612": {"norad_id": "44906", "name": "GONETS M 15 (M25)", "tle1": "1 44906U 19096B   26165.50164566  .00000045  00000-0  24953-3 0  9996", "tle2": "2 44906  82.5256  86.7665 0014780 177.3162 182.8000 12.42871424293310", "object_type": "PAYLOAD", "criticality_score": 9.0, "last_updated": "2026-06-14T17:46:05.057534+00:00", "maneuver_count": 0, "owner": "N/A"}, "613": {"norad_id": "44907", "name": "GONETS M 16 (M26)", "tle1": "1 44907U 19096C   26165.52790660  .00000028  00000-0  13194-3 0  9995", "tle2": "2 44907  82.5203  85.7038 0009732 221.0097 139.0252 12.42891595293304", "object_type": "PAYLOAD", "criticality_score": 9.0, "last_updated": "2026-06-14T17:46:05.057534+00:00", "maneuver_count": 0, "owner": "N/A"}, "614": {"norad_id": "46486", "name": "GONETS M 17", "tle1": "1 46486U 20068A   26165.47249765  .00000126  00000-0  83832-3 0  9994", "tle2": "2 46486  82.4987 349.1923 0023192  43.1535 317.1357 12.42873582258821", "object_type": "PAYLOAD", "criticality_score": 9.0, "last_updated": "2026-06-14T17:46:05.057534+00:00", "maneuver_count": 0, "owner": "N/A"}, "615": {"norad_id": "46487", "name": "GONETS M 18", "tle1": "1 46487U 20068B   26165.51665262  .00000046  00000-0  25677-3 0  9998", "tle2": "2 46487  82.4940 348.2837 0020443  39.8063 320.4512 12.42873480258815", "object_type": "PAYLOAD", "criticality_score": 9.0, "last_updated": "2026-06-14T17:46:05.057534+00:00", "maneuver_count": 0, "owner": "N/A"}, "616": {"norad_id": "46488", "name": "GONETS M 19", "tle1": "1 46488U 20068C   26165.49210738  .00000142  00000-0  95382-3 0  9997", "tle2": "2 46488  82.4965 348.7489 0014344  55.0771 305.1654 12.42892634258910", "object_type": "PAYLOAD", "criticality_score": 9.0, "last_updated": "2026-06-14T17:46:05.057534+00:00", "maneuver_count": 0, "owner": "N/A"}, "622": {"norad_id": "45603", "name": "XINGYUN-2 02", "tle1": "1 45603U 20028B   26165.47263361  .00003154  00000-0  18976-3 0  9999", "tle2": "2 45603  97.5066 171.5117 0009140 284.7419  75.2798 15.11532716334421", "object_type": "PAYLOAD", "criticality_score": 9.0, "last_updated": "2026-06-14T17:46:05.057534+00:00", "maneuver_count": 0, "owner": "N/A"}, "643": {"norad_id": "46478", "name": "HJ-2A", "tle1": "1 46478U 20067A   26165.52223924  .00001096  00000-0  16449-3 0  9996", "tle2": "2 46478  97.8834 243.9576 0002363 281.9516  78.1429 14.76514910307865", "object_type": "PAYLOAD", "criticality_score": 9.0, "last_updated": "2026-06-14T17:46:05.057534+00:00", "maneuver_count": 0, "owner": "N/A"}}}